YAOGAN-33 02            
1 53698U 22106A   23295.56545564  .00000320  00000+0  77270-4 0  9994
2 53698  98.1882 301.1099 0002021  94.2980 265.8451 14.59412465 60478
STARLINK-4725           
1 53700U 22107A   23294.98755632  .00020259  00000+0  12862-2 0  9990
2 53700  53.2159 187.9897 0001526  83.1985 276.9181 15.08872260 63562
STARLINK-4711           
1 53701U 22107B   23295.11634056  .00005671  00000+0  37383-3 0  9990
2 53701  53.2174 187.3717 0001508  96.3292 263.7872 15.08868520 63589
STARLINK-4724           
1 53702U 22107C   23295.07544959  .00006795  00000+0  44441-3 0  9999
2 53702  53.2155 172.8695 0001480  92.7029 267.4133 15.08857524 63819
STARLINK-4731           
1 53703U 22107D   23295.39604696  .00001380  00000+0  10474-3 0  9994
2 53703  53.2169 186.2748 0001151  74.4760 285.6359 15.08848978 63621
STARLINK-4714           
1 53704U 22107E   23295.44395885 -.00002683  00000+0 -15053-3 0  9995
2 53704  53.2164 186.5700 0002611  80.7546 279.3742 15.08836388 63462
STARLINK-4717           
1 53705U 22107F   23295.44027726  .00000967  00000+0  78843-4 0  9990
2 53705  53.2160 186.5492 0002796  81.1247 279.0062 15.08843978 63627
STARLINK-4716           
1 53706U 22107G   23295.42553489  .00000047  00000+0  21089-4 0  9998
2 53706  53.2158 186.4617 0002302  71.2481 288.8761 15.08844856 63626
STARLINK-4667           
1 53707U 22107H   23295.08650143  .00011235  00000+0  72231-3 0  9991
2 53707  53.2159 172.9339 0001545  88.2699 271.8471 15.08867374 63783
STARLINK-4694           
1 53708U 22107J   23295.07175539  .00005447  00000+0  35980-3 0  9990
2 53708  53.2164 172.8515 0001546  96.1058 264.0110 15.08864306 63789
STARLINK-4685           
1 53709U 22107K   23295.45630822  .00001144  00000+0  89976-4 0  9999
2 53709  53.2169 190.9535 0001789 116.4678 243.6498 15.08836846 63253
STARLINK-4627           
1 53711U 22107M   23295.13615311  .00023234  00000+0  14716-2 0  9995
2 53711  53.2160 192.5014 0001388  82.3827 277.7322 15.08877258 63200
STARLINK-4683           
1 53712U 22107N   23295.44157948 -.00001600  00000+0 -82444-4 0  9997
2 53712  53.2173 190.8717 0002187  77.2071 282.9165 15.08834435 63278
STARLINK-4698           
1 53713U 22107P   23295.45031441  .00000781  00000+0  67146-4 0  9997
2 53713  53.2184 195.8878 0001602  93.3564 266.7612 15.08844152 63185
STARLINK-4688           
1 53714U 22107Q   23295.39559918  .00004132  00000+0  27750-3 0  9995
2 53714  53.2165 171.3115 0001444 101.9739 258.1415 15.08849660 63525
STARLINK-4686           
1 53715U 22107R   23295.46137325 -.00003356  00000+0 -19283-3 0  9999
2 53715  53.2166 195.9554 0002709  75.7435 284.3858 15.08836319 63194
STARLINK-4699           
1 53716U 22107S   23295.45769172 -.00001334  00000+0 -65715-4 0  9996
2 53716  53.2162 195.9324 0002283  74.0219 286.1025 15.08835573 63181
