[{"OBJECT_NAME":"YAOGAN-33 02","OBJECT_ID":"2022-106A","EPOCH":"2023-10-22T13:34:15.367296","MEAN_MOTION":14.59412465,"ECCENTRICITY":0.0002021,"INCLINATION":98.1882,"RA_OF_ASC_NODE":301.1099,"ARG_OF_PERICENTER":94.298,"MEAN_ANOMALY":265.8451,"EPHEMERIS_TYPE":0,"CLASSIFICATION_TYPE":"U","NORAD_CAT_ID":53698,"ELEMENT_SET_NO":999,"REV_AT_EPOCH":6047,"BSTAR":7.727e-5,"MEAN_MOTION_DOT":3.2e-6,"MEAN_MOTION_DDOT":0},{"OBJECT_NAME":"STARLINK-4725","OBJECT_ID":"2022-107A","EPOCH":"2023-10-21T23:42:04.866048","MEAN_MOTION":15.0887226,"ECCENTRICITY":0.0001526,"INCLINATION":53.2159,"RA_OF_ASC_NODE":187.9897,"ARG_OF_PERICENTER":83.1985,"MEAN_ANOMALY":276.9181,"EPHEMERIS_TYPE":0,"CLASSIFICATION_TYPE":"U","NORAD_CAT_ID":53700,"ELEMENT_SET_NO":999,"REV_AT_EPOCH":6356,"BSTAR":0.0012862,"MEAN_MOTION_DOT":0.00020259,"MEAN_MOTION_DDOT":0},{"OBJECT_NAME":"STARLINK-4711","OBJECT_ID":"2022-107B","EPOCH":"2023-10-22T02:47:31.824384","MEAN_MOTION":15.0886852,"ECCENTRICITY":0.0001508,"INCLINATION":53.2174,"RA_OF_ASC_NODE":187.3717,"ARG_OF_PERICENTER":96.3292,"MEAN_ANOMALY":263.7872,"EPHEMERIS_TYPE":0,"CLASSIFICATION_TYPE":"U","NORAD_CAT_ID":53701,"ELEMENT_SET_NO":999,"REV_AT_EPOCH":6358,"BSTAR":0.00037383,"MEAN_MOTION_DOT":5.671e-5,"MEAN_MOTION_DDOT":0},{"OBJECT_NAME":"STARLINK-4724","OBJECT_ID":"2022-107C","EPOCH":"2023-10-22T01:48:38.844576","MEAN_MOTION":15.08857524,"ECCENTRICITY":0.000148,"INCLINATION":53.2155,"RA_OF_ASC_NODE":172.8695,"ARG_OF_PERICENTER":92.7029,"MEAN_ANOMALY":267.4133,"EPHEMERIS_TYPE":0,"CLASSIFICATION_TYPE":"U","NORAD_CAT_ID":53702,"ELEMENT_SET_NO":999,"REV_AT_EPOCH":6381,"BSTAR":0.00044441,"MEAN_MOTION_DOT":6.795e-5,"MEAN_MOTION_DDOT":0},{"OBJECT_NAME":"STARLINK-4731","OBJECT_ID":"2022-107D","EPOCH":"2023-10-22T09:30:18.457344","MEAN_MOTION":15.08848978,"ECCENTRICITY":0.0001151,"INCLINATION":53.2169,"RA_OF_ASC_NODE":186.2748,"ARG_OF_PERICENTER":74.476,"MEAN_ANOMALY":285.6359,"EPHEMERIS_TYPE":0,"CLASSIFICATION_TYPE":"U","NORAD_CAT_ID":53703,"ELEMENT_SET_NO":999,"REV_AT_EPOCH":6362,"BSTAR":0.00010474,"MEAN_MOTION_DOT":1.38e-5,"MEAN_MOTION_DDOT":0},{"OBJECT_NAME":"STARLINK-4714","OBJECT_ID":"2022-107E","EPOCH":"2023-10-22T10:39:18.044640","MEAN_MOTION":15.08836388,"ECCENTRICITY":0.0002611,"INCLINATION":53.2164,"RA_OF_ASC_NODE":186.57,"ARG_OF_PERICENTER":80.7546,"MEAN_ANOMALY":279.3742,"EPHEMERIS_TYPE":0,"CLASSIFICATION_TYPE":"U","NORAD_CAT_ID":53704,"ELEMENT_SET_NO":999,"REV_AT_EPOCH":6346,"BSTAR":-0.00015053,"MEAN_MOTION_DOT":-2.683e-5,"MEAN_MOTION_DDOT":0},{"OBJECT_NAME":"STARLINK-4717","OBJECT_ID":"2022-107F","EPOCH":"2023-10-22T10:33:59.955264","MEAN_MOTION":15.08843978,"ECCENTRICITY":0.0002796,"INCLINATION":53.216,"RA_OF_ASC_NODE":186.5492,"ARG_OF_PERICENTER":81.1247,"MEAN_ANOMALY":279.0062,"EPHEMERIS_TYPE":0,"CLASSIFICATION_TYPE":"U","NORAD_CAT_ID":53705,"ELEMENT_SET_NO":999,"REV_AT_EPOCH":6362,"BSTAR":7.8843e-5,"MEAN_MOTION_DOT":9.67e-6,"MEAN_MOTION_DDOT":0},{"OBJECT_NAME":"STARLINK-4716","OBJECT_ID":"2022-107G","EPOCH":"2023-10-22T10:12:46.214496","MEAN_MOTION":15.08844856,"ECCENTRICITY":0.0002302,"INCLINATION":53.2158,"RA_OF_ASC_NODE":186.4617,"ARG_OF_PERICENTER":71.2481,"MEAN_ANOMALY":288.8761,"EPHEMERIS_TYPE":0,"CLASSIFICATION_TYPE":"U","NORAD_CAT_ID":53706,"ELEMENT_SET_NO":999,"REV_AT_EPOCH":6362,"BSTAR":2.1089e-5,"MEAN_MOTION_DOT":4.7e-7,"MEAN_MOTION_DDOT":0},{"OBJECT_NAME":"STARLINK-4667","OBJECT_ID":"2022-107H","EPOCH":"2023-10-22T02:04:33.723552","MEAN_MOTION":15.08867374,"ECCENTRICITY":0.0001545,"INCLINATION":53.2159,"RA_OF_ASC_NODE":172.9339,"ARG_OF_PERICENTER":88.2699,"MEAN_ANOMALY":271.8471,"EPHEMERIS_TYPE":0,"CLASSIFICATION_TYPE":"U","NORAD_CAT_ID":53707,"ELEMENT_SET_NO":999,"REV_AT_EPOCH":6378,"BSTAR":0.00072231,"MEAN_MOTION_DOT":0.00011235,"MEAN_MOTION_DDOT":0},{"OBJECT_NAME":"STARLINK-4694","OBJECT_ID":"2022-107J","EPOCH":"2023-10-22T01:43:19.665696","MEAN_MOTION":15.08864306,"ECCENTRICITY":0.0001546,"INCLINATION":53.2164,"RA_OF_ASC_NODE":172.8515,"ARG_OF_PERICENTER":96.1058,"MEAN_ANOMALY":264.011,"EPHEMERIS_TYPE":0,"CLASSIFICATION_TYPE":"U","NORAD_CAT_ID":53708,"ELEMENT_SET_NO":999,"REV_AT_EPOCH":6378,"BSTAR":0.0003598,"MEAN_MOTION_DOT":5.447e-5,"MEAN_MOTION_DDOT":0},{"OBJECT_NAME":"STARLINK-4685","OBJECT_ID":"2022-107K","EPOCH":"2023-10-22T10:57:05.030208","MEAN_MOTION":15.08836846,"ECCENTRICITY":0.0001789,"INCLINATION":53.2169,"RA_OF_ASC_NODE":190.9535,"ARG_OF_PERICENTER":116.4678,"MEAN_ANOMALY":243.6498,"EPHEMERIS_TYPE":0,"CLASSIFICATION_TYPE":"U","NORAD_CAT_ID":53709,"ELEMENT_SET_NO":999,"REV_AT_EPOCH":6325,"BSTAR":8.9976e-5,"MEAN_MOTION_DOT":1.144e-5,"MEAN_MOTION_DDOT":0},{"OBJECT_NAME":"STARLINK-4627","OBJECT_ID":"2022-107M","EPOCH":"2023-10-22T03:16:03.628704","MEAN_MOTION":15.08877258,"ECCENTRICITY":0.0001388,"INCLINATION":53.216,"RA_OF_ASC_NODE":192.5014,"ARG_OF_PERICENTER":82.3827,"MEAN_ANOMALY":277.7322,"EPHEMERIS_TYPE":0,"CLASSIFICATION_TYPE":"U","NORAD_CAT_ID":53711,"ELEMENT_SET_NO":999,"REV_AT_EPOCH":6320,"BSTAR":0.0014716,"MEAN_MOTION_DOT":0.00023234,"MEAN_MOTION_DDOT":0},{"OBJECT_NAME":"STARLINK-4683","OBJECT_ID":"2022-107N","EPOCH":"2023-10-22T10:35:52.467072","MEAN_MOTION":15.08834435,"ECCENTRICITY":0.0002187,"INCLINATION":53.2173,"RA_OF_ASC_NODE":190.8717,"ARG_OF_PERICENTER":77.2071,"MEAN_ANOMALY":282.9165,"EPHEMERIS_TYPE":0,"CLASSIFICATION_TYPE":"U","NORAD_CAT_ID":53712,"ELEMENT_SET_NO":999,"REV_AT_EPOCH":6327,"BSTAR":-8.2444e-5,"MEAN_MOTION_DOT":-1.6e-5,"MEAN_MOTION_DDOT":0},{"OBJECT_NAME":"STARLINK-4698","OBJECT_ID":"2022-107P","EPOCH":"2023-10-22T10:48:27.165024","MEAN_MOTION":15.08844152,"ECCENTRICITY":0.0001602,"INCLINATION":53.2184,"RA_OF_ASC_NODE":195.8878,"ARG_OF_PERICENTER":93.3564,"MEAN_ANOMALY":266.7612,"EPHEMERIS_TYPE":0,"CLASSIFICATION_TYPE":"U","NORAD_CAT_ID":53713,"ELEMENT_SET_NO":999,"REV_AT_EPOCH":6318,"BSTAR":6.7146e-5,"MEAN_MOTION_DOT":7.81e-6,"MEAN_MOTION_DDOT":0},{"OBJECT_NAME":"STARLINK-4688","OBJECT_ID":"2022-107Q","EPOCH":"2023-10-22T09:29:39.769152","MEAN_MOTION":15.0884966,"ECCENTRICITY":0.0001444,"INCLINATION":53.2165,"RA_OF_ASC_NODE":171.3115,"ARG_OF_PERICENTER":101.9739,"MEAN_ANOMALY":258.1415,"EPHEMERIS_TYPE":0,"CLASSIFICATION_TYPE":"U","NORAD_CAT_ID":53714,"ELEMENT_SET_NO":999,"REV_AT_EPOCH":6352,"BSTAR":0.0002775,"MEAN_MOTION_DOT":4.132e-5,"MEAN_MOTION_DDOT":0},{"OBJECT_NAME":"STARLINK-4686","OBJECT_ID":"2022-107R","EPOCH":"2023-10-22T11:04:22.648800","MEAN_MOTION":15.08836319,"ECCENTRICITY":0.0002709,"INCLINATION":53.2166,"RA_OF_ASC_NODE":195.9554,"ARG_OF_PERICENTER":75.7435,"MEAN_ANOMALY":284.3858,"EPHEMERIS_TYPE":0,"CLASSIFICATION_TYPE":"U","NORAD_CAT_ID":53715,"ELEMENT_SET_NO":999,"REV_AT_EPOCH":6319,"BSTAR":-0.00019283,"MEAN_MOTION_DOT":-3.356e-5,"MEAN_MOTION_DDOT":0},{"OBJECT_NAME":"STARLINK-4699","OBJECT_ID":"2022-107S","EPOCH":"2023-10-22T10:59:04.564608","MEAN_MOTION":15.08835573,"ECCENTRICITY":0.0002283,"INCLINATION":53.2162,"RA_OF_ASC_NODE":195.9324,"ARG_OF_PERICENTER":74.0219,"MEAN_ANOMALY":286.1025,"EPHEMERIS_TYPE":0,"CLASSIFICATION_TYPE":"U","NORAD_CAT_ID":53716,"ELEMENT_SET_NO":999,"REV_AT_EPOCH":6318,"BSTAR":-6.5715e-5,"MEAN_MOTION_DOT":-1.334e-5,"MEAN_MOTION_DDOT":0}]
